{"fetched_at":"2026-07-18T17:29:34.864Z","source":"https://celestrak.org/NORAD/elements/gp.php?GROUP=qianfan&FORMAT=JSON","constellation":"qianfan","records":[{"OBJECT_NAME":"QIANFAN-33","OBJECT_ID":"2024-185Q","EPOCH":"2026-07-18T06:35:26.075904","CLASSIFICATION_TYPE":"U","MEAN_MOTION":13.96720696,"ECCENTRICITY":0.00083319,"INCLINATION":88.9791,"RA_OF_ASC_NODE":54.5571,"ARG_OF_PERICENTER":22.8627,"MEAN_ANOMALY":337.292,"EPHEMERIS_TYPE":0,"NORAD_CAT_ID":61566,"ELEMENT_SET_NO":999,"REV_AT_EPOCH":9952,"BSTAR":0.00010016819,"MEAN_MOTION_DOT":0.00000153,"MEAN_MOTION_DDOT":0},{"OBJECT_NAME":"QIANFAN-34","OBJECT_ID":"2024-185R","EPOCH":"2026-07-18T06:35:32.196480","CLASSIFICATION_TYPE":"U","MEAN_MOTION":14.02484308,"ECCENTRICITY":0.00064076,"INCLINATION":88.9769,"RA_OF_ASC_NODE":53.8329,"ARG_OF_PERICENTER":23.2892,"MEAN_ANOMALY":336.8578,"EPHEMERIS_TYPE":0,"NORAD_CAT_ID":61567,"ELEMENT_SET_NO":999,"REV_AT_EPOCH":9984,"BSTAR":0.000043927923,"MEAN_MOTION_DOT":8.1e-7,"MEAN_MOTION_DDOT":0},{"OBJECT_NAME":"QIANFAN-35","OBJECT_ID":"2024-185S","EPOCH":"2026-07-18T06:00:14.571360","CLASSIFICATION_TYPE":"U","MEAN_MOTION":14.28299823,"ECCENTRICITY":0.00042704,"INCLINATION":88.9796,"RA_OF_ASC_NODE":51.3508,"ARG_OF_PERICENTER":304.5539,"MEAN_ANOMALY":55.5252,"EPHEMERIS_TYPE":0,"NORAD_CAT_ID":61568,"ELEMENT_SET_NO":999,"REV_AT_EPOCH":10122,"BSTAR":0.00011717375,"MEAN_MOTION_DOT":0.00000307,"MEAN_MOTION_DDOT":0},{"OBJECT_NAME":"QIANFAN-36","OBJECT_ID":"2024-185T","EPOCH":"2026-07-18T06:19:00.600960","CLASSIFICATION_TYPE":"U","MEAN_MOTION":13.55640798,"ECCENTRICITY":0.00078568,"INCLINATION":88.977,"RA_OF_ASC_NODE":58.3789,"ARG_OF_PERICENTER":120.2806,"MEAN_ANOMALY":239.9126,"EPHEMERIS_TYPE":0,"NORAD_CAT_ID":61569,"ELEMENT_SET_NO":999,"REV_AT_EPOCH":9739,"BSTAR":0.000098508607,"MEAN_MOTION_DOT":8.1e-7,"MEAN_MOTION_DDOT":0},{"OBJECT_NAME":"QIANFAN-37","OBJECT_ID":"2024-232B","EPOCH":"2026-07-18T05:16:43.375008","CLASSIFICATION_TYPE":"U","MEAN_MOTION":13.51011378,"ECCENTRICITY":0.00020867,"INCLINATION":89.0069,"RA_OF_ASC_NODE":19.4667,"ARG_OF_PERICENTER":108.387,"MEAN_ANOMALY":251.7508,"EPHEMERIS_TYPE":0,"NORAD_CAT_ID":62238,"ELEMENT_SET_NO":999,"REV_AT_EPOCH":12853,"BSTAR":0.000020749842,"MEAN_MOTION_DOT":2.5e-7,"MEAN_MOTION_DDOT":0},{"OBJECT_NAME":"QIANFAN-38","OBJECT_ID":"2024-232C","EPOCH":"2026-07-18T05:52:15.495456","CLASSIFICATION_TYPE":"U","MEAN_MOTION":13.51022208,"ECCENTRICITY":0.00125643,"INCLINATION":89.0076,"RA_OF_ASC_NODE":19.3948,"ARG_OF_PERICENTER":289.6263,"MEAN_ANOMALY":70.3532,"EPHEMERIS_TYPE":0,"NORAD_CAT_ID":62239,"ELEMENT_SET_NO":999,"REV_AT_EPOCH":12859,"BSTAR":0.000029138167,"MEAN_MOTION_DOT":3.1e-7,"MEAN_MOTION_DDOT":0},{"OBJECT_NAME":"QIANFAN-39","OBJECT_ID":"2024-232D","EPOCH":"2026-07-18T05:54:13.262112","CLASSIFICATION_TYPE":"U","MEAN_MOTION":14.25532763,"ECCENTRICITY":0.0018522,"INCLINATION":89.0065,"RA_OF_ASC_NODE":12.5279,"ARG_OF_PERICENTER":87.0595,"MEAN_ANOMALY":273.2718,"EPHEMERIS_TYPE":0,"NORAD_CAT_ID":62240,"ELEMENT_SET_NO":999,"REV_AT_EPOCH":13237,"BSTAR":0.000024235269,"MEAN_MOTION_DOT":7.2e-7,"MEAN_MOTION_DDOT":0},{"OBJECT_NAME":"QIANFAN-40","OBJECT_ID":"2024-232E","EPOCH":"2026-07-18T06:39:37.480032","CLASSIFICATION_TYPE":"U","MEAN_MOTION":13.51009542,"ECCENTRICITY":0.00117183,"INCLINATION":89.0104,"RA_OF_ASC_NODE":19.0366,"ARG_OF_PERICENTER":298.9923,"MEAN_ANOMALY":61.0053,"EPHEMERIS_TYPE":0,"NORAD_CAT_ID":62241,"ELEMENT_SET_NO":999,"REV_AT_EPOCH":12896,"BSTAR":0.000024006932,"MEAN_MOTION_DOT":2.7e-7,"MEAN_MOTION_DDOT":0},{"OBJECT_NAME":"QIANFAN-41","OBJECT_ID":"2024-232F","EPOCH":"2026-07-18T05:04:48.007200","CLASSIFICATION_TYPE":"U","MEAN_MOTION":13.51012405,"ECCENTRICITY":0.00119221,"INCLINATION":89.0074,"RA_OF_ASC_NODE":19.3455,"ARG_OF_PERICENTER":285.2976,"MEAN_ANOMALY":74.6858,"EPHEMERIS_TYPE":0,"NORAD_CAT_ID":62242,"ELEMENT_SET_NO":999,"REV_AT_EPOCH":12861,"BSTAR":0.000009507117,"MEAN_MOTION_DOT":1.8e-7,"MEAN_MOTION_DDOT":0},{"OBJECT_NAME":"QIANFAN-42","OBJECT_ID":"2024-232G","EPOCH":"2026-07-18T05:48:39.552480","CLASSIFICATION_TYPE":"U","MEAN_MOTION":14.24621265,"ECCENTRICITY":0.00173735,"INCLINATION":89.0063,"RA_OF_ASC_NODE":12.6077,"ARG_OF_PERICENTER":93.0489,"MEAN_ANOMALY":267.2692,"EPHEMERIS_TYPE":0,"NORAD_CAT_ID":62243,"ELEMENT_SET_NO":999,"REV_AT_EPOCH":13233,"BSTAR":0.000024175729,"MEAN_MOTION_DOT":7.1e-7,"MEAN_MOTION_DDOT":0},{"OBJECT_NAME":"QIANFAN-43","OBJECT_ID":"2024-232H","EPOCH":"2026-07-18T06:45:31.135968","CLASSIFICATION_TYPE":"U","MEAN_MOTION":13.51011836,"ECCENTRICITY":0.00135233,"INCLINATION":89.0078,"RA_OF_ASC_NODE":19.4134,"ARG_OF_PERICENTER":290.8217,"MEAN_ANOMALY":69.1485,"EPHEMERIS_TYPE":0,"NORAD_CAT_ID":62244,"ELEMENT_SET_NO":999,"REV_AT_EPOCH":9723,"BSTAR":0.000022274469,"MEAN_MOTION_DOT":2.6e-7,"MEAN_MOTION_DDOT":0},{"OBJECT_NAME":"QIANFAN-44","OBJECT_ID":"2024-232J","EPOCH":"2026-07-18T06:27:39.689568","CLASSIFICATION_TYPE":"U","MEAN_MOTION":13.51013632,"ECCENTRICITY":0.00116972,"INCLINATION":89.0077,"RA_OF_ASC_NODE":19.2218,"ARG_OF_PERICENTER":287.7867,"MEAN_ANOMALY":72.2007,"EPHEMERIS_TYPE":0,"NORAD_CAT_ID":62245,"ELEMENT_SET_NO":999,"REV_AT_EPOCH":12870,"BSTAR":0.000007587778,"MEAN_MOTION_DOT":1.7e-7,"MEAN_MOTION_DDOT":0},{"OBJECT_NAME":"QIANFAN-45","OBJECT_ID":"2024-232K","EPOCH":"2026-07-18T05:40:24.261888","CLASSIFICATION_TYPE":"U","MEAN_MOTION":13.51011094,"ECCENTRICITY":0.00123649,"INCLINATION":89.008,"RA_OF_ASC_NODE":19.3794,"ARG_OF_PERICENTER":287.3255,"MEAN_ANOMALY":72.6543,"EPHEMERIS_TYPE":0,"NORAD_CAT_ID":62246,"ELEMENT_SET_NO":999,"REV_AT_EPOCH":12862,"BSTAR":0.000021397104,"MEAN_MOTION_DOT":2.6e-7,"MEAN_MOTION_DDOT":0},{"OBJECT_NAME":"QIANFAN-46","OBJECT_ID":"2024-232L","EPOCH":"2026-07-18T06:15:54.222336","CLASSIFICATION_TYPE":"U","MEAN_MOTION":13.51011726,"ECCENTRICITY":0.00124852,"INCLINATION":89.0076,"RA_OF_ASC_NODE":19.437,"ARG_OF_PERICENTER":293.6087,"MEAN_ANOMALY":66.3753,"EPHEMERIS_TYPE":0,"NORAD_CAT_ID":62247,"ELEMENT_SET_NO":999,"REV_AT_EPOCH":12858,"BSTAR":0.000010708341,"MEAN_MOTION_DOT":1.9e-7,"MEAN_MOTION_DDOT":0},{"OBJECT_NAME":"QIANFAN-47","OBJECT_ID":"2024-232M","EPOCH":"2026-07-18T06:21:51.150240","CLASSIFICATION_TYPE":"U","MEAN_MOTION":13.51011268,"ECCENTRICITY":0.00128868,"INCLINATION":89.0072,"RA_OF_ASC_NODE":19.3608,"ARG_OF_PERICENTER":292.5056,"MEAN_ANOMALY":67.473,"EPHEMERIS_TYPE":0,"NORAD_CAT_ID":62248,"ELEMENT_SET_NO":999,"REV_AT_EPOCH":12861,"BSTAR":0.000024933471,"MEAN_MOTION_DOT":2.8e-7,"MEAN_MOTION_DDOT":0},{"OBJECT_NAME":"QIANFAN-48","OBJECT_ID":"2024-232N","EPOCH":"2026-07-18T05:28:17.932512","CLASSIFICATION_TYPE":"U","MEAN_MOTION":13.5101593,"ECCENTRICITY":0.00151883,"INCLINATION":89.0076,"RA_OF_ASC_NODE":19.3749,"ARG_OF_PERICENTER":295.14,"MEAN_ANOMALY":64.8175,"EPHEMERIS_TYPE":0,"NORAD_CAT_ID":62249,"ELEMENT_SET_NO":999,"REV_AT_EPOCH":12861,"BSTAR":0.000038395057,"MEAN_MOTION_DOT":3.7e-7,"MEAN_MOTION_DDOT":0}]}
