QIANFAN-33              
1 61566U 24185Q   26199.27460736  .00000153  00000+0  10017-3 0  9996
2 61566  88.9791  54.5571 0008331  22.8627 337.2920 13.96720696 99527
QIANFAN-34              
1 61567U 24185R   26199.27467820  .00000081  00000+0  43928-4 0  9996
2 61567  88.9769  53.8329 0006407  23.2892 336.8578 14.02484308 99841
QIANFAN-35              
1 61568U 24185S   26199.25016865  .00000307  00000+0  11717-3 0  9995
2 61568  88.9796  51.3508 0004270 304.5539  55.5252 14.28299823101227
QIANFAN-36              
1 61569U 24185T   26199.26320140  .00000081  00000+0  98509-4 0  9995
2 61569  88.9770  58.3789 0007856 120.2806 239.9126 13.55640798 97391
QIANFAN-37              
1 62238U 24232B   26199.21994647  .00000025  00000+0  20750-4 0  9997
2 62238  89.0069  19.4667 0002086 108.3870 251.7508 13.51011378128538
QIANFAN-38              
1 62239U 24232C   26199.24462379  .00000031  00000+0  29138-4 0  9999
2 62239  89.0076  19.3948 0012564 289.6263  70.3532 13.51022208128591
QIANFAN-39              
1 62240U 24232D   26199.24598683  .00000072  00000+0  24235-4 0  9997
2 62240  89.0065  12.5279 0018522  87.0595 273.2718 14.25532763132376
QIANFAN-40              
1 62241U 24232E   26199.27751713  .00000027  00000+0  24007-4 0  9993
2 62241  89.0104  19.0366 0011718 298.9923  61.0053 13.51009542128965
QIANFAN-41              
1 62242U 24232F   26199.21166675  .00000018  00000+0  95071-5 0  9995
2 62242  89.0074  19.3455 0011922 285.2976  74.6858 13.51012405128615
QIANFAN-42              
1 62243U 24232G   26199.24212445  .00000071  00000+0  24176-4 0  9992
2 62243  89.0063  12.6077 0017373  93.0489 267.2692 14.24621265132331
QIANFAN-43              
1 62244U 24232H   26199.28161037  .00000026  00000+0  22274-4 0  9994
2 62244  89.0078  19.4134 0013523 290.8217  69.1485 13.51011836 97230
QIANFAN-44              
1 62245U 24232J   26199.26920937  .00000017  00000+0  75878-5 0  9994
2 62245  89.0077  19.2218 0011697 287.7867  72.2007 13.51013632128705
QIANFAN-45              
1 62246U 24232K   26199.23639192  .00000026  00000+0  21397-4 0  9998
2 62246  89.0080  19.3794 0012364 287.3255  72.6543 13.51011094128629
QIANFAN-46              
1 62247U 24232L   26199.26104424  .00000019  00000+0  10708-4 0  9993
2 62247  89.0076  19.4370 0012485 293.6087  66.3753 13.51011726128583
QIANFAN-47              
1 62248U 24232M   26199.26517535  .00000028  00000+0  24933-4 0  9990
2 62248  89.0072  19.3608 0012886 292.5056  67.4730 13.51011268128614
QIANFAN-48              
1 62249U 24232N   26199.22798533  .00000037  00000+0  38395-4 0  9993
2 62249  89.0076  19.3749 0015188 295.1400  64.8175 13.51015930128619
